ORBCOMM FM24 [-]        
1 25478U 98053D   24038.42950137  .00001790  00000+0  66914-3 0  9994
2 25478  45.0086  94.2164 0003128 256.5912 103.4586 14.35209456326154
ORBCOMM FM25 [-]        
1 25479U 98053E   24038.46424167  .00001779  00000+0  66530-3 0  9999
2 25479  45.0081  92.2912 0005621 274.2872  85.7332 14.35195857326454
ORBCOMM FM26 [-]        
1 25480U 98053F   24038.50642594  .00001486  00000+0  56919-3 0  9997
2 25480  45.0075  85.8409 0007242 294.0897  65.9192 14.34703344326400
ORBCOMM FM27 [+]        
1 25481U 98053G   24038.52063507  .00001907  00000+0  71026-3 0  9995
2 25481  45.0063  92.2871 0001746 254.5437 105.5217 14.35169490326393
ORBCOMM FM28 [-]        
1 25482U 98053H   24038.39724733  .00001847  00000+0  68275-3 0  9991
2 25482  45.0077  31.6582 0005534 319.1904  40.8529 14.35637434327049
ORBCOMM FM30 [-]        
1 25980U 99065A   24038.33816911  .00001287  00000+0  49861-3 0  9990
2 25980  45.0317 272.0759 0006541  44.4044 315.7327 14.34845146263171
ORBCOMM FM32 [+]        
1 25982U 99065C   24038.35809915  .00001232  00000+0  48885-3 0  9995
2 25982  45.0162 278.8725 0005920  67.8247 292.3228 14.33831350263375
